{"type": "FeatureCollection", "properties": {"city": "CHI", "center": [-87.67050468240262, 41.78768688780987]}, "features": [{"type": "Feature", "properties": {"layer": "site_boundary"}, "geometry": {"type": "Polygon", "coordinates": [[[-87.6742461502146, 41.78781631236016], [-87.67401561663021, 41.78781881168691], [-87.67304618220307, 41.787830708446656], [-87.67279859453919, 41.78783380329782], [-87.67183476730594, 41.7878480977872], [-87.67158526789284, 41.78785179778351], [-87.67158447565268, 41.78785180855497], [-87.67061358388719, 41.78786380847282], [-87.6703726042826, 41.787866802013674], [-87.66939825038403, 41.78788199351674], [-87.66915818836893, 41.787885792920335], [-87.66915761250134, 41.78788580151795], [-87.66697573005027, 41.78791640131577], [-87.66673565292517, 41.787919800996605], [-87.66673469686849, 41.78791981311235], [-87.66460519091065, 41.78794361322164], [-87.66458158469766, 41.78794300934423], [-87.66455817124447, 41.78794067668894], [-87.66453517603728, 41.78793663772066], [-87.66451282053424, 41.787930931337186], [-87.66449132003257, 41.7879236124945], [-87.66447088159512, 41.78791475167762], [-87.66445170205618, 41.78790443422162], [-87.66443396612581, 41.787892759489935], [-87.664417844611, 41.78787983991729], [-87.6644034927706, 41.78786579992695], [-87.66439104882024, 41.787850774732355], [-87.6643806326011, 41.787834909035006], [-87.66437234442591, 41.78781835563079], [-87.66436626411296, 41.78780127393853], [-87.66436245021731, 41.7877838284646], [-87.66436093946707, 41.78776618721869], [-87.6643617464097, 41.78774852009578], [-87.664364863272, 41.787730997239834], [-87.66437026003504, 41.78771378740541], [-87.66437788472336, 41.78769705633229], [-87.6643876639055, 41.78768096514945], [-87.66439950340133, 41.78766566882325], [-87.66441328918906, 41.78765131466507], [-87.66442888850341, 41.787638040912654], [-87.6644461511142, 41.78762597539877], [-87.66446491077315, 41.7876152343202], [-87.66448498681498, 41.78760592111877], [-87.66450618589725, 41.78759812548502], [-87.66452830386235, 41.78759192249463], [-87.66455112770363, 41.78758737188528], [-87.66457443761665, 41.78758451748149], [-87.66459800911599, 41.78758338677248], [-87.66672702511649, 41.78755959222892], [-87.66696664643534, 41.787556199011696], [-87.66914829958772, 41.78752560251704], [-87.6693881109947, 41.78752180708903], [-87.67036308562149, 41.78750660593607], [-87.67036410591699, 41.7875065916434], [-87.67060560524142, 41.78750359165666], [-87.67157612824518, 41.78749159633681], [-87.67182523144267, 41.78748790222585], [-87.67278943003075, 41.787473602266196], [-87.67279018097317, 41.78747359200308], [-87.67303818027939, 41.78747049201677], [-87.67400795261719, 41.787458591140265], [-87.67400841419101, 41.787458585805325], [-87.67423893167965, 41.78745608670461], [-87.6764041437547, 41.78743148774678], [-87.67642774996665, 41.78743208682175], [-87.67645116405104, 41.78743441470198], [-87.67647416051925, 41.78743844896887], [-87.67649651790445, 41.787444150770554], [-87.67651802089432, 41.78745146519594], [-87.67653846240457, 41.78746032180368], [-87.67655764557324, 41.787470635300366], [-87.67657538565655, 41.78748230636207], [-87.67659151180807, 41.78749522259077], [-87.67660586872405, 41.78750925959684], [-87.67661831813905, 41.78752428219693], [-87.67662874015755, 41.78754014571578], [-87.67663703440869, 41.78755669737965], [-87.67664312101289, 41.78757377778741], [-87.67664694135115, 41.787591222445776], [-87.67664845862976, 41.78760886335338], [-87.67664765823459, 41.787626530618745], [-87.67664454787199, 41.78764405409641], [-87.67663915749462, 41.78766126502556], [-87.67663153901303, 41.78767799765519], [-87.67662176579587, 41.78769409084055], [-87.67660993196327, 41.78770938959495], [-87.67659615148058, 41.78772374658239], [-87.67658055706073, 41.78773702353659], [-87.67656329888625, 41.78774909259253], [-87.6765445431629, 41.78775983751788], [-87.67652447051904, 41.78776915483247], [-87.67650327426603, 41.78777695480483], [-87.67648115853652, 41.78778316231639], [-87.67645833631848, 41.78778771758494], [-87.676435027404, 41.78779057674041], [-87.67641145627245, 41.78779171224731], [-87.6742461502146, 41.78781631236016]]]}}, {"type": "Feature", "properties": {"layer": "existing_route"}, "geometry": {"type": "LineString", "coordinates": [[-87.66459322265905, 41.787583616376004], [-87.66459732040059, 41.78776356654618]]}}, {"type": "Feature", "properties": {"layer": "existing_route"}, "geometry": {"type": "LineString", "coordinates": [[-87.66459732040059, 41.78776356654618], [-87.66460141817156, 41.78794351671043]]}}, {"type": "Feature", "properties": {"layer": "existing_route"}, "geometry": {"type": "LineString", "coordinates": [[-87.66916835896986, 41.78752528506201], [-87.6691708, 41.7876332], [-87.66917301537124, 41.7877053844338]]}}, {"type": "Feature", "properties": {"layer": "existing_route"}, "geometry": {"type": "LineString", "coordinates": [[-87.66917301537124, 41.7877053844338], [-87.66917854232557, 41.78788547080266]]}}, {"type": "Feature", "properties": {"layer": "existing_route"}, "geometry": {"type": "LineString", "coordinates": [[-87.66696143529018, 41.78755627281073], [-87.66696715951329, 41.78773635722053]]}}, {"type": "Feature", "properties": {"layer": "existing_route"}, "geometry": {"type": "LineString", "coordinates": [[-87.66696715951329, 41.78773635722053], [-87.666972883775, 41.787916441624205]]}}, {"type": "Feature", "properties": {"layer": "existing_route"}, "geometry": {"type": "LineString", "coordinates": [[-87.67038735379026, 41.7875063028725], [-87.670388, 41.7875358], [-87.67039129069981, 41.787686411938964]]}}, {"type": "Feature", "properties": {"layer": "existing_route"}, "geometry": {"type": "LineString", "coordinates": [[-87.67039129069981, 41.787686411938964], [-87.6703952259051, 41.78786652102074]]}}, {"type": "Feature", "properties": {"layer": "existing_route"}, "geometry": {"type": "LineString", "coordinates": [[-87.67646565202988, 41.78743695632649], [-87.67646968786033, 41.78761080131178]]}}, {"type": "Feature", "properties": {"layer": "existing_route"}, "geometry": {"type": "LineString", "coordinates": [[-87.67646968786033, 41.78761080131178], [-87.67647372371879, 41.78778464629152]]}}, {"type": "Feature", "properties": {"layer": "existing_route"}, "geometry": {"type": "LineString", "coordinates": [[-87.66674739886459, 41.78755930374084], [-87.66675162771575, 41.78773940933144]]}}, {"type": "Feature", "properties": {"layer": "existing_route"}, "geometry": {"type": "LineString", "coordinates": [[-87.66675162771575, 41.78773940933144], [-87.66675585659715, 41.78791951491607]]}}, {"type": "Feature", "properties": {"layer": "existing_route"}, "geometry": {"type": "LineString", "coordinates": [[-87.67425354916509, 41.78781622836997], [-87.67424857017997, 41.78763613109366]]}}, {"type": "Feature", "properties": {"layer": "existing_route"}, "geometry": {"type": "LineString", "coordinates": [[-87.67424857017997, 41.78763613109366], [-87.67424359122936, 41.78745603381134]]}}, {"type": "Feature", "properties": {"layer": "existing_route"}, "geometry": {"type": "LineString", "coordinates": [[-87.66939414289318, 41.78788205852923], [-87.66938972762642, 41.787701954962756]]}}, {"type": "Feature", "properties": {"layer": "existing_route"}, "geometry": {"type": "LineString", "coordinates": [[-87.66938972762642, 41.787701954962756], [-87.669386, 41.7875499], [-87.66938530965186, 41.78752185142798]]}}, {"type": "Feature", "properties": {"layer": "existing_route"}, "geometry": {"type": "LineString", "coordinates": [[-87.67060974654522, 41.78786385614572], [-87.6706052862963, 41.787683753590834]]}}, {"type": "Feature", "properties": {"layer": "existing_route"}, "geometry": {"type": "LineString", "coordinates": [[-87.6706052862963, 41.787683753590834], [-87.67060082607894, 41.787503651029965]]}}, {"type": "Feature", "properties": {"layer": "existing_route"}, "geometry": {"type": "LineString", "coordinates": [[-87.67182469171392, 41.78784824721551], [-87.6718237, 41.78781239999998], [-87.67181971613759, 41.78766815251745]]}}, {"type": "Feature", "properties": {"layer": "existing_route"}, "geometry": {"type": "LineString", "coordinates": [[-87.67181971613759, 41.78766815251745], [-87.67181474226827, 41.787488057787435]]}}, {"type": "Feature", "properties": {"layer": "existing_route"}, "geometry": {"type": "LineString", "coordinates": [[-87.6716005510377, 41.787491234179456], [-87.67160508400441, 41.787671335451655]]}}, {"type": "Feature", "properties": {"layer": "existing_route"}, "geometry": {"type": "LineString", "coordinates": [[-87.67160508400441, 41.787671335451655], [-87.67160961700311, 41.78785143671788]]}}, {"type": "Feature", "properties": {"layer": "existing_route"}, "geometry": {"type": "LineString", "coordinates": [[-87.67282610023418, 41.7878334595024], [-87.67282095429569, 41.78765336559707]]}}, {"type": "Feature", "properties": {"layer": "existing_route"}, "geometry": {"type": "LineString", "coordinates": [[-87.67282095429569, 41.78765336559707], [-87.67281580839261, 41.78747327168568]]}}, {"type": "Feature", "properties": {"layer": "existing_route"}, "geometry": {"type": "LineString", "coordinates": [[-87.67302643821237, 41.78747063880445], [-87.67303144821818, 41.78765073440838]]}}, {"type": "Feature", "properties": {"layer": "existing_route"}, "geometry": {"type": "LineString", "coordinates": [[-87.67303144821818, 41.78765073440838], [-87.67303645825865, 41.78783083000625]]}}, {"type": "Feature", "properties": {"layer": "existing_route"}, "geometry": {"type": "LineString", "coordinates": [[-87.67403228756996, 41.78781863096467], [-87.67402598937913, 41.78763854726483]]}}, {"type": "Feature", "properties": {"layer": "existing_route"}, "geometry": {"type": "LineString", "coordinates": [[-87.67402598937913, 41.78763854726483], [-87.67401969123017, 41.78745846355876]]}}, {"type": "Feature", "properties": {"layer": "existing_entrance"}, "geometry": {"type": "Point", "coordinates": [-87.66459322265905, 41.787583616376004]}}, {"type": "Feature", "properties": {"layer": "existing_entrance"}, "geometry": {"type": "Point", "coordinates": [-87.66916835896986, 41.78752528506201]}}, {"type": "Feature", "properties": {"layer": "existing_entrance"}, "geometry": {"type": "Point", "coordinates": [-87.66696143529018, 41.78755627281073]}}, {"type": "Feature", "properties": {"layer": "existing_entrance"}, "geometry": {"type": "Point", "coordinates": [-87.67038735379026, 41.7875063028725]}}, {"type": "Feature", "properties": {"layer": "existing_entrance"}, "geometry": {"type": "Point", "coordinates": [-87.67646565202988, 41.78743695632649]}}, {"type": "Feature", "properties": {"layer": "existing_entrance"}, "geometry": {"type": "Point", "coordinates": [-87.66674739886459, 41.78755930374084]}}, {"type": "Feature", "properties": {"layer": "existing_entrance"}, "geometry": {"type": "Point", "coordinates": [-87.67425354916509, 41.78781622836997]}}, {"type": "Feature", "properties": {"layer": "existing_entrance"}, "geometry": {"type": "Point", "coordinates": [-87.66939414289318, 41.78788205852923]}}, {"type": "Feature", "properties": {"layer": "existing_entrance"}, "geometry": {"type": "Point", "coordinates": [-87.67060974654522, 41.78786385614572]}}, {"type": "Feature", "properties": {"layer": "existing_entrance"}, "geometry": {"type": "Point", "coordinates": [-87.67182469171392, 41.78784824721551]}}, {"type": "Feature", "properties": {"layer": "existing_entrance"}, "geometry": {"type": "Point", "coordinates": [-87.6716005510377, 41.787491234179456]}}, {"type": "Feature", "properties": {"layer": "existing_entrance"}, "geometry": {"type": "Point", "coordinates": [-87.67282610023418, 41.7878334595024]}}, {"type": "Feature", "properties": {"layer": "existing_entrance"}, "geometry": {"type": "Point", "coordinates": [-87.67302643821237, 41.78747063880445]}}, {"type": "Feature", "properties": {"layer": "existing_entrance"}, "geometry": {"type": "Point", "coordinates": [-87.67403228756996, 41.78781863096467]}}]}