{"type": "FeatureCollection", "properties": {"city": "SUZ", "center": [120.58645142731294, 31.28706839371269]}, "features": [{"type": "Feature", "properties": {"layer": "site_boundary"}, "geometry": {"type": "Polygon", "coordinates": [[[120.58682259999999, 31.286858], [120.586592, 31.286686100000004], [120.5865611, 31.286691799999996], [120.5862071, 31.287103300000016], [120.58618020000002, 31.28715599999999], [120.5861688, 31.287190900000002], [120.58616010000001, 31.287232800000005], [120.5861548, 31.287278599999993], [120.58615410000002, 31.287305500000006], [120.5861588, 31.287329], [120.58619769999999, 31.2874219], [120.5862245, 31.287450500000002], [120.586254, 31.287461999999998], [120.58628080000001, 31.287462], [120.58630899999999, 31.287458500000007], [120.58633180000001, 31.287443599999996], [120.58682259999999, 31.286858]]]}}, {"type": "Feature", "properties": {"layer": "existing_route"}, "geometry": {"type": "LineString", "coordinates": [[120.5862593650818, 31.287355397569424], [120.58623522520065, 31.287286633205028], [120.58622986078262, 31.28720640804987], [120.58625400066377, 31.28712618282643], [120.58628089279699, 31.28708240881449]]}}, {"type": "Feature", "properties": {"layer": "existing_route"}, "geometry": {"type": "LineString", "coordinates": [[120.58628089279699, 31.28708240881449], [120.58631032705307, 31.28703449677321], [120.58637738227846, 31.286942810630823], [120.58647125959396, 31.28685112439926]]}}, {"type": "Feature", "properties": {"layer": "existing_entrance"}, "geometry": {"type": "Point", "coordinates": [120.5862593650818, 31.287355397569424]}}]}