{"type": "FeatureCollection", "properties": {"city": "LON", "center": [-0.23546887390924992, 51.52680903054811]}, "features": [{"type": "Feature", "properties": {"layer": "site_boundary"}, "geometry": {"type": "Polygon", "coordinates": [[[-0.23577648753194103, 51.526728895408645], [-0.23624478753183087, 51.52727789540906], [-0.2361129875317501, 51.5273154954091], [-0.23593628753164125, 51.52736929540912], [-0.23570458753150192, 51.52743219540916], [-0.23557088753145775, 51.52740569540914], [-0.2351275875315864, 51.52684279540874], [-0.2350315875316223, 51.52670719540863], [-0.23469658753169048, 51.52633269540834], [-0.23520478753201204, 51.526167895408236], [-0.2351353875319885, 51.52615479540821], [-0.23523868753204955, 51.52612719540821], [-0.23577648753194103, 51.526728895408645]]]}}, {"type": "Feature", "properties": {"layer": "existing_route"}, "geometry": {"type": "LineString", "coordinates": [[-0.23509203935378586, 51.52679258370906], [-0.2353609875317613, 51.52671949540863], [-0.23541546594968862, 51.52670874446376]]}}, {"type": "Feature", "properties": {"layer": "existing_route"}, "geometry": {"type": "LineString", "coordinates": [[-0.23541546594968862, 51.52670874446376], [-0.23546638753182006, 51.52669869540862], [-0.23559748753187013, 51.52671349540866], [-0.23567478753189267, 51.526733295408654], [-0.2357404875319058, 51.526762095408664]]}}, {"type": "Feature", "properties": {"layer": "existing_route"}, "geometry": {"type": "LineString", "coordinates": [[-0.2357404875319058, 51.526762095408664], [-0.23593413655785075, 51.526994095563765]]}}, {"type": "Feature", "properties": {"layer": "existing_route"}, "geometry": {"type": "LineString", "coordinates": [[-0.23593413655785075, 51.526994095563765], [-0.2361277875318094, 51.52722609540902]]}}, {"type": "Feature", "properties": {"layer": "existing_route"}, "geometry": {"type": "LineString", "coordinates": [[-0.2361277875318094, 51.52722609540902], [-0.2361474375217722, 51.52724964541063]]}}, {"type": "Feature", "properties": {"layer": "existing_route"}, "geometry": {"type": "LineString", "coordinates": [[-0.2361474375217722, 51.52724964541063], [-0.23616708753180027, 51.527273195409045]]}}, {"type": "Feature", "properties": {"layer": "existing_entrance"}, "geometry": {"type": "Point", "coordinates": [-0.23509203935378586, 51.52679258370906]}}, {"type": "Feature", "properties": {"layer": "existing_entrance"}, "geometry": {"type": "Point", "coordinates": [-0.2357404875319058, 51.526762095408664]}}, {"type": "Feature", "properties": {"layer": "existing_entrance"}, "geometry": {"type": "Point", "coordinates": [-0.2361277875318094, 51.52722609540902]}}]}